[{"OBJECT_NAME":"JILIN-1 GAOFEN 2A","OBJECT_ID":"2019-075A","EPOCH":"2026-03-03T04:51:29.602944","MEAN_MOTION":15.36140733,"ECCENTRICITY":0.0007876,"INCLINATION":97.5024,"RA_OF_ASC_NODE":143.7441,"ARG_OF_PERICENTER":105.1527,"MEAN_ANOMALY":255.0589,"EPHEMERIS_TYPE":0,"CLASSIFICATION_TYPE":"U","NORAD_CAT_ID":44777,"ELEMENT_SET_NO":999,"REV_AT_EPOCH":34859,"BSTAR":0.00051455,"MEAN_MOTION_DOT":0.00018073,"MEAN_MOTION_DDOT":0},{"OBJECT_NAME":"NINGXIA-1 1","OBJECT_ID":"2019-076A","EPOCH":"2026-03-03T03:35:03.987744","MEAN_MOTION":14.02022865,"ECCENTRICITY":0.0011375,"INCLINATION":45.0066,"RA_OF_ASC_NODE":293.713,"ARG_OF_PERICENTER":12.2327,"MEAN_ANOMALY":347.8781,"EPHEMERIS_TYPE":0,"CLASSIFICATION_TYPE":"U","NORAD_CAT_ID":44779,"ELEMENT_SET_NO":999,"REV_AT_EPOCH":32297,"BSTAR":0.0001009,"MEAN_MOTION_DOT":2.5e-7,"MEAN_MOTION_DDOT":0},{"OBJECT_NAME":"NINGXIA-1 5","OBJECT_ID":"2019-076E","EPOCH":"2026-03-03T03:55:37.085952","MEAN_MOTION":14.0200643,"ECCENTRICITY":0.0011338,"INCLINATION":45.0064,"RA_OF_ASC_NODE":293.0043,"ARG_OF_PERICENTER":0.8728,"MEAN_ANOMALY":359.2125,"EPHEMERIS_TYPE":0,"CLASSIFICATION_TYPE":"U","NORAD_CAT_ID":44783,"ELEMENT_SET_NO":999,"REV_AT_EPOCH":32289,"BSTAR":1.8237e-5,"MEAN_MOTION_DOT":-1.02e-6,"MEAN_MOTION_DDOT":0},{"OBJECT_NAME":"KL-ALPHA A","OBJECT_ID":"2019-077A","EPOCH":"2026-03-03T03:50:36.503808","MEAN_MOTION":13.56031026,"ECCENTRICITY":0.0012853,"INCLINATION":88.9141,"RA_OF_ASC_NODE":234.1848,"ARG_OF_PERICENTER":62.9284,"MEAN_ANOMALY":297.318,"EPHEMERIS_TYPE":0,"CLASSIFICATION_TYPE":"U","NORAD_CAT_ID":44785,"ELEMENT_SET_NO":999,"REV_AT_EPOCH":31136,"BSTAR":-3.2514e-5,"MEAN_MOTION_DOT":-1.0e-7,"MEAN_MOTION_DDOT":0},{"OBJECT_NAME":"CARTOSAT-3","OBJECT_ID":"2019-081A","EPOCH":"2026-03-03T04:22:31.394784","MEAN_MOTION":15.19324781,"ECCENTRICITY":0.0013421,"INCLINATION":97.4441,"RA_OF_ASC_NODE":125.6855,"ARG_OF_PERICENTER":160.4578,"MEAN_ANOMALY":199.7174,"EPHEMERIS_TYPE":0,"CLASSIFICATION_TYPE":"U","NORAD_CAT_ID":44804,"ELEMENT_SET_NO":999,"REV_AT_EPOCH":34737,"BSTAR":0.00029561,"MEAN_MOTION_DOT":6.19e-5,"MEAN_MOTION_DDOT":0},{"OBJECT_NAME":"JILIN-1 GAOFEN 2B","OBJECT_ID":"2019-086A","EPOCH":"2026-03-03T03:54:59.462208","MEAN_MOTION":15.19323981,"ECCENTRICITY":0.0013561,"INCLINATION":97.498,"RA_OF_ASC_NODE":134.8799,"ARG_OF_PERICENTER":334.3405,"MEAN_ANOMALY":25.7155,"EPHEMERIS_TYPE":0,"CLASSIFICATION_TYPE":"U","NORAD_CAT_ID":44836,"ELEMENT_SET_NO":999,"REV_AT_EPOCH":34438,"BSTAR":0.00038331,"MEAN_MOTION_DOT":8.048e-5,"MEAN_MOTION_DDOT":0},{"OBJECT_NAME":"ANGELS","OBJECT_ID":"2019-092D","EPOCH":"2026-03-03T03:38:26.244096","MEAN_MOTION":15.77662931,"ECCENTRICITY":0.0002619,"INCLINATION":97.4223,"RA_OF_ASC_NODE":276.6563,"ARG_OF_PERICENTER":223.1944,"MEAN_ANOMALY":136.9117,"EPHEMERIS_TYPE":0,"CLASSIFICATION_TYPE":"U","NORAD_CAT_ID":44876,"ELEMENT_SET_NO":999,"REV_AT_EPOCH":34559,"BSTAR":0.0009642,"MEAN_MOTION_DOT":0.00163222,"MEAN_MOTION_DDOT":0},{"OBJECT_NAME":"TIANQIN 1 (CAS-6)","OBJECT_ID":"2019-093A","EPOCH":"2026-03-03T05:10:30.154656","MEAN_MOTION":14.9483244,"ECCENTRICITY":0.0012059,"INCLINATION":97.7845,"RA_OF_ASC_NODE":146.8605,"ARG_OF_PERICENTER":51.1684,"MEAN_ANOMALY":309.061,"EPHEMERIS_TYPE":0,"CLASSIFICATION_TYPE":"U","NORAD_CAT_ID":44879,"ELEMENT_SET_NO":999,"REV_AT_EPOCH":33621,"BSTAR":0.0003505,"MEAN_MOTION_DOT":3.764e-5,"MEAN_MOTION_DDOT":0},{"OBJECT_NAME":"ETRSS-1","OBJECT_ID":"2019-093B","EPOCH":"2026-03-03T04:23:28.607136","MEAN_MOTION":14.95171103,"ECCENTRICITY":0.0012483,"INCLINATION":97.7864,"RA_OF_ASC_NODE":147.2022,"ARG_OF_PERICENTER":53.8568,"MEAN_ANOMALY":306.3806,"EPHEMERIS_TYPE":0,"CLASSIFICATION_TYPE":"U","NORAD_CAT_ID":44880,"ELEMENT_SET_NO":999,"REV_AT_EPOCH":33621,"BSTAR":0.00052453,"MEAN_MOTION_DOT":5.712e-5,"MEAN_MOTION_DDOT":0},{"OBJECT_NAME":"TIANYAN 01","OBJECT_ID":"2019-093C","EPOCH":"2026-03-03T03:43:58.755360","MEAN_MOTION":14.86322721,"ECCENTRICITY":0.0015,"INCLINATION":97.7629,"RA_OF_ASC_NODE":136.9482,"ARG_OF_PERICENTER":77.4142,"MEAN_ANOMALY":282.8751,"EPHEMERIS_TYPE":0,"CLASSIFICATION_TYPE":"U","NORAD_CAT_ID":44881,"ELEMENT_SET_NO":999,"REV_AT_EPOCH":33566,"BSTAR":0.00015421,"MEAN_MOTION_DOT":1.307e-5,"MEAN_MOTION_DDOT":0},{"OBJECT_NAME":"TIANYAN 02","OBJECT_ID":"2019-093D","EPOCH":"2026-03-03T05:44:28.689216","MEAN_MOTION":15.03723104,"ECCENTRICITY":0.0014503,"INCLINATION":97.7926,"RA_OF_ASC_NODE":156.1559,"ARG_OF_PERICENTER":28.7269,"MEAN_ANOMALY":331.4752,"EPHEMERIS_TYPE":0,"CLASSIFICATION_TYPE":"U","NORAD_CAT_ID":44882,"ELEMENT_SET_NO":999,"REV_AT_EPOCH":33668,"BSTAR":0.00063839,"MEAN_MOTION_DOT":8.717e-5,"MEAN_MOTION_DDOT":0},{"OBJECT_NAME":"CBERS 4A","OBJECT_ID":"2019-093E","EPOCH":"2026-03-03T04:40:07.219200","MEAN_MOTION":14.81553143,"ECCENTRICITY":0.0002417,"INCLINATION":97.7614,"RA_OF_ASC_NODE":132.799,"ARG_OF_PERICENTER":134.4201,"MEAN_ANOMALY":225.721,"EPHEMERIS_TYPE":0,"CLASSIFICATION_TYPE":"U","NORAD_CAT_ID":44883,"ELEMENT_SET_NO":999,"REV_AT_EPOCH":33538,"BSTAR":9.4135e-5,"MEAN_MOTION_DOT":6.88e-6,"MEAN_MOTION_DDOT":0},{"OBJECT_NAME":"WEILAI 1R","OBJECT_ID":"2019-093F","EPOCH":"2026-03-03T04:49:54.366816","MEAN_MOTION":14.99657624,"ECCENTRICITY":0.0012039,"INCLINATION":97.7946,"RA_OF_ASC_NODE":151.9909,"ARG_OF_PERICENTER":46.3829,"MEAN_ANOMALY":313.8391,"EPHEMERIS_TYPE":0,"CLASSIFICATION_TYPE":"U","NORAD_CAT_ID":44884,"ELEMENT_SET_NO":999,"REV_AT_EPOCH":33653,"BSTAR":0.00063945,"MEAN_MOTION_DOT":7.837e-5,"MEAN_MOTION_DDOT":0},{"OBJECT_NAME":"FLORIPASAT-1","OBJECT_ID":"2019-093G","EPOCH":"2026-03-03T04:35:09.667968","MEAN_MOTION":15.02596529,"ECCENTRICITY":0.0012876,"INCLINATION":97.7927,"RA_OF_ASC_NODE":155.7664,"ARG_OF_PERICENTER":72.1178,"MEAN_ANOMALY":288.145,"EPHEMERIS_TYPE":0,"CLASSIFICATION_TYPE":"U","NORAD_CAT_ID":44885,"ELEMENT_SET_NO":999,"REV_AT_EPOCH":33672,"BSTAR":0.00067652,"MEAN_MOTION_DOT":8.965e-5,"MEAN_MOTION_DDOT":0},{"OBJECT_NAME":"SHUNTIAN","OBJECT_ID":"2019-093H","EPOCH":"2026-03-03T04:20:20.714784","MEAN_MOTION":14.94554742,"ECCENTRICITY":0.0012834,"INCLINATION":97.8023,"RA_OF_ASC_NODE":150.9339,"ARG_OF_PERICENTER":62.4213,"MEAN_ANOMALY":297.8309,"EPHEMERIS_TYPE":0,"CLASSIFICATION_TYPE":"U","NORAD_CAT_ID":44886,"ELEMENT_SET_NO":999,"REV_AT_EPOCH":33634,"BSTAR":0.0004318,"MEAN_MOTION_DOT":4.618e-5,"MEAN_MOTION_DDOT":0},{"OBJECT_NAME":"2019-093L","OBJECT_ID":"2019-093L","EPOCH":"2026-03-03T04:20:36.583872","MEAN_MOTION":14.93889495,"ECCENTRICITY":0.0013027,"INCLINATION":97.7628,"RA_OF_ASC_NODE":141.7199,"ARG_OF_PERICENTER":49.815,"MEAN_ANOMALY":310.4208,"EPHEMERIS_TYPE":0,"CLASSIFICATION_TYPE":"U","NORAD_CAT_ID":44889,"ELEMENT_SET_NO":999,"REV_AT_EPOCH":33597,"BSTAR":0.00050379,"MEAN_MOTION_DOT":5.308e-5,"MEAN_MOTION_DDOT":0},{"OBJECT_NAME":"ELEKTRO-L 3","OBJECT_ID":"2019-095A","EPOCH":"2026-03-03T04:10:09.439968","MEAN_MOTION":1.00266961,"ECCENTRICITY":0.0001601,"INCLINATION":0.0049,"RA_OF_ASC_NODE":233.3005,"ARG_OF_PERICENTER":93.0368,"MEAN_ANOMALY":333.1326,"EPHEMERIS_TYPE":0,"CLASSIFICATION_TYPE":"U","NORAD_CAT_ID":44903,"ELEMENT_SET_NO":999,"REV_AT_EPOCH":2264,"BSTAR":0,"MEAN_MOTION_DOT":0,"MEAN_MOTION_DDOT":0}]
