JILIN-1 GAOFEN 2A       
1 44777U 19075A   26062.20242596  .00018073  00000+0  51455-3 0  9998
2 44777  97.5024 143.7441 0007876 105.1527 255.0589 15.36140733348597
NINGXIA-1 1             
1 44779U 19076A   26062.14935171  .00000025  00000+0  10090-3 0  9990
2 44779  45.0066 293.7130 0011375  12.2327 347.8781 14.02022865322974
NINGXIA-1 5             
1 44783U 19076E   26062.16362368 -.00000102  00000+0  18237-4 0  9998
2 44783  45.0064 293.0043 0011338   0.8728 359.2125 14.02006430322890
KL-ALPHA A              
1 44785U 19077A   26062.16014472 -.00000010  00000+0 -32514-4 0  9994
2 44785  88.9141 234.1848 0012853  62.9284 297.3180 13.56031026311362
CARTOSAT-3              
1 44804U 19081A   26062.18230781  .00006190  00000+0  29561-3 0  9996
2 44804  97.4441 125.6855 0013421 160.4578 199.7174 15.19324781347378
JILIN-1 GAOFEN 2B       
1 44836U 19086A   26062.16318822  .00008048  00000+0  38331-3 0  9996
2 44836  97.4980 134.8799 0013561 334.3405  25.7155 15.19323981344382
ANGELS                  
1 44876U 19092D   26062.15169264  .00163222  00000+0  96420-3 0  9999
2 44876  97.4223 276.6563 0002619 223.1944 136.9117 15.77662931345597
TIANQIN 1 (CAS-6)       
1 44879U 19093A   26062.21562679  .00003764  00000+0  35050-3 0  9993
2 44879  97.7845 146.8605 0012059  51.1684 309.0610 14.94832440336219
ETRSS-1                 
1 44880U 19093B   26062.18296999  .00005712  00000+0  52453-3 0  9991
2 44880  97.7864 147.2022 0012483  53.8568 306.3806 14.95171103336211
TIANYAN 01              
1 44881U 19093C   26062.15554115  .00001307  00000+0  15421-3 0  9996
2 44881  97.7629 136.9482 0015000  77.4142 282.8751 14.86322721335663
TIANYAN 02              
1 44882U 19093D   26062.23922094  .00008717  00000+0  63839-3 0  9999
2 44882  97.7926 156.1559 0014503  28.7269 331.4752 15.03723104336684
CBERS 4A                
1 44883U 19093E   26062.19452800  .00000688  00000+0  94135-4 0  9991
2 44883  97.7614 132.7990 0002417 134.4201 225.7210 14.81553143335389
WEILAI 1R               
1 44884U 19093F   26062.20132369  .00007837  00000+0  63945-3 0  9996
2 44884  97.7946 151.9909 0012039  46.3829 313.8391 14.99657624336534
FLORIPASAT-1            
1 44885U 19093G   26062.19108412  .00008965  00000+0  67652-3 0  9999
2 44885  97.7927 155.7664 0012876  72.1178 288.1450 15.02596529336729
SHUNTIAN                
1 44886U 19093H   26062.18079531  .00004618  00000+0  43180-3 0  9999
2 44886  97.8023 150.9339 0012834  62.4213 297.8309 14.94554742336349
2019-093L               
1 44889U 19093L   26062.18097898  .00005308  00000+0  50379-3 0  9993
2 44889  97.7628 141.7199 0013027  49.8150 310.4208 14.93889495335971
ELEKTRO-L 3             
1 44903U 19095A   26062.17372037  .00000000  00000+0  00000+0 0  9998
2 44903   0.0049 233.3005 0001601  93.0368 333.1326  1.00266961 22644
